NORAD_CAT_ID,OBJECT_NAME,OBJECT_TYPE,EPOCH,MEAN_MOTION,ECCENTRICITY,INCLINATION,RA_OF_ASC_NODE,ARG_OF_PERICENTER,MEAN_ANOMALY,BSTAR,MEAN_MOTION_DOT,MEAN_MOTION_DDOT,TLE_LINE0,TLE_LINE1,TLE_LINE2,SEMIMAJOR_AXIS,PERIOD,APOGEE,PERIGEE,DECAYED
55651.0,STARLINK-5506,PAYLOAD,2023-09-17 12:31:33,14.98336195,0.0003486,69.9994,304.2688,272.3589,87.7171,0.00010647,1.178e-05,0.0,0 STARLINK-5506,1 55651U 23021Z   23260.52191030  .00001178  00000-0  10647-3 0  9992,2 55651  69.9994 304.2688 0003486 272.3589  87.7171 14.98336195 33352,6950.174,96.107,574.462,569.616,0.0
55651.0,STARLINK-5506,PAYLOAD,2023-09-18 02:56:46,14.98331253,0.0003659,69.9997,302.7539,273.9571,86.1169,-4.1774e-05,-5.92e-06,0.0,0 STARLINK-5506,1 55651U 23021Z   23261.12275496 -.00000592  00000-0 -41774-4 0  9995,2 55651  69.9997 302.7539 0003659 273.9571  86.1169 14.98331253 33140,6950.189,96.107,574.597,569.511,0.0
55651.0,STARLINK-5506,PAYLOAD,2023-09-18 12:33:34,14.98332276,0.0003404,69.9999,301.7434,269.629,90.4479,-7.4534e-05,-9.82e-06,0.0,0 STARLINK-5506,1 55651U 23021Z   23261.52331429 -.00000982  00000-0 -74534-4 0  9991,2 55651  69.9999 301.7434 0003404 269.6290  90.4479 14.98332276 33501,6950.186,96.107,574.417,569.685,0.0
55651.0,STARLINK-5506,PAYLOAD,2023-09-18 20:34:14,14.98334553,0.0003415,70.0,300.9017,273.9645,86.1123,-4.7414e-05,-6.59e-06,0.0,0 STARLINK-5506,1 55651U 23021Z   23261.85711159 -.00000659  00000-0 -47414-4 0  9997,2 55651  70.0000 300.9017 0003415 273.9645  86.1123 14.98334553 33552,6950.179,96.107,574.417,569.67,0.0
55651.0,STARLINK-5506,PAYLOAD,2023-09-19 09:23:18,14.98335972,0.0003466,69.9997,299.5549,272.9861,87.0902,7.8587e-05,8.45e-06,0.0,0 STARLINK-5506,1 55651U 23021Z   23262.39118415  .00000845  00000-0  78587-4 0  9993,2 55651  69.9997 299.5549 0003466 272.9861  87.0902 14.98335972 33339,6950.174,96.107,574.448,569.63,0.0
55651.0,STARLINK-5506,PAYLOAD,2023-09-20 03:00:47,14.98328286,0.000294,70.0015,297.7038,279.616,80.4666,2.2975e-06,-6.6e-07,0.0,0 STARLINK-5506,1 55651U 23021Z   23263.12555046 -.00000066  00000-0  22975-5 0  9997,2 55651  70.0015 297.7038 0002940 279.6160  80.4666 14.98328286 33444,6950.198,96.107,574.107,570.02,0.0
55651.0,STARLINK-5506,PAYLOAD,2023-09-20 12:37:36,14.98323964,0.0003546,69.999,296.6937,271.4332,88.6421,-5.2031e-05,-7.14e-06,0.0,0 STARLINK-5506,1 55651U 23021Z   23263.52611452 -.00000714  00000-0 -52031-4 0  9991,2 55651  69.9990 296.6937 0003546 271.4332  88.6421 14.98323964 33800,6950.212,96.107,574.541,569.612,0.0
55651.0,STARLINK-5506,PAYLOAD,2023-09-20 19:02:08,14.98325397,0.0003528,69.9991,296.0207,271.1759,88.8995,-4.0835e-05,-5.8e-06,0.0,0 STARLINK-5506,1 55651U 23021Z   23263.79315400 -.00000580  00000-0 -40835-4 0  9994,2 55651  69.9991 296.0207 0003528 271.1759  88.8995 14.98325397 33849,6950.207,96.107,574.524,569.62,0.0
55651.0,STARLINK-5506,PAYLOAD,2023-09-21 09:27:20,14.98331934,0.0003547,69.9989,294.5056,268.9892,91.0861,-7.4978e-05,-9.88e-06,0.0,0 STARLINK-5506,1 55651U 23021Z   23264.39399128 -.00000988  00000-0 -74978-4 0  9997,2 55651  69.9989 294.5056 0003547 268.9892  91.0861 14.98331934 33633,6950.187,96.107,574.517,569.587,0.0
55651.0,STARLINK-5506,PAYLOAD,2023-09-21 12:39:37,14.98331841,0.000345,69.9991,294.169,270.0872,89.9891,-8.1503e-05,-1.065e-05,0.0,0 STARLINK-5506,1 55651U 23021Z   23264.52751162 -.00001065  00000-0 -81503-4 0  9991,2 55651  69.9991 294.1690 0003450 270.0872  89.9891 14.98331841 33952,6950.187,96.107,574.45,569.654,0.0
55651.0,STARLINK-5506,PAYLOAD,2023-09-21 19:04:09,14.98328437,0.0003584,69.9988,293.4956,257.705,102.3707,2.2195e-05,1.72e-06,0.0,0 STARLINK-5506,1 55651U 23021Z   23264.79455006  .00000172  00000-0  22195-4 0  9996,2 55651  69.9988 293.4956 0003584 257.7050 102.3707 14.98328437 33990,6950.198,96.107,574.554,569.572,0.0
55651.0,STARLINK-5506,PAYLOAD,2023-09-22 11:05:29,14.98330049,0.0003561,69.9987,291.8124,268.2257,91.8494,0.00010707,1.185e-05,0.0,0 STARLINK-5506,1 55651U 23021Z   23265.46214770  .00001185  00000-0  10707-3 0  9992,2 55651  69.9987 291.8124 0003561 268.2257  91.8494 14.98330049 33794,6950.193,96.107,574.533,569.583,0.0
55651.0,STARLINK-5506,PAYLOAD,2023-09-22 19:06:09,14.98330126,0.0003561,69.9986,290.9706,268.6556,91.4195,7.5348e-05,8.06e-06,0.0,0 STARLINK-5506,1 55651U 23021Z   23265.79594837  .00000806  00000-0  75348-4 0  9995,2 55651  69.9986 290.9706 0003561 268.6556  91.4195 14.98330126 34145,6950.193,96.107,574.532,569.583,0.0
55651.0,STARLINK-5506,PAYLOAD,2023-09-23 11:07:30,14.98332284,0.0003535,69.9986,289.2873,268.3148,91.7606,4.2355e-05,4.12e-06,0.0,0 STARLINK-5506,1 55651U 23021Z   23266.46354739  .00000412  00000-0  42355-4 0  9990,2 55651  69.9986 289.2873 0003535 268.3148  91.7606 14.98332284 33940,6950.186,96.107,574.508,569.594,0.0
55651.0,STARLINK-5506,PAYLOAD,2023-09-24 11:09:31,14.9833283,0.0003482,69.9987,286.7618,268.268,91.8081,-6.4926e-06,-1.71e-06,0.0,0 STARLINK-5506,1 55651U 23021Z   23267.46494669 -.00000171  00000-0 -64926-5 0  9991,2 55651  69.9987 286.7618 0003482 268.2680  91.8081 14.98332830 34396,6950.184,96.107,574.469,569.629,0.0
55651.0,STARLINK-5506,PAYLOAD,2023-09-25 11:11:32,14.98330767,0.0003431,69.9987,284.2369,268.587,91.4896,-4.7389e-06,-1.5e-06,0.0,0 STARLINK-5506,1 55651U 23021Z   23268.46634722 -.00000150  00000-0 -47389-5 0  9999,2 55651  69.9987 284.2369 0003431 268.5870  91.4896 14.98330767 34544,6950.191,96.107,574.44,569.671,0.0
55651.0,STARLINK-5506,PAYLOAD,2023-09-26 11:13:33,14.9833192,0.0003406,69.9987,281.7121,268.1611,91.9158,2.247e-05,1.75e-06,0.0,0 STARLINK-5506,1 55651U 23021Z   23269.46774461  .00000175  00000-0  22470-4 0  9993,2 55651  69.9987 281.7121 0003406 268.1611  91.9158 14.98331920 34697,6950.187,96.107,574.419,569.685,0.0
55651.0,STARLINK-5506,PAYLOAD,2023-09-27 11:15:34,14.98328494,0.0003321,69.9986,279.1872,267.4069,92.671,3.8526e-06,-4.7e-07,0.0,0 STARLINK-5506,1 55651U 23021Z   23270.46914776 -.00000047  00000-0  38526-5 0  9999,2 55651  69.9986 279.1872 0003321 267.4069  92.6710 14.98328494 34846,6950.198,96.107,574.371,569.754,0.0
55651.0,STARLINK-5506,PAYLOAD,2023-09-28 09:41:27,14.98328924,0.0003224,69.9989,276.8303,265.8479,94.2311,-1.7769e-05,-3.05e-06,0.0,0 STARLINK-5506,1 55651U 23021Z   23271.40378821 -.00000305  00000-0 -17769-4 0  9992,2 55651  69.9989 276.8303 0003224 265.8479  94.2311 14.98328924 34989,6950.196,96.107,574.302,569.82,0.0
55651.0,STARLINK-5506,PAYLOAD,2023-09-29 00:06:39,14.98328265,0.0003278,69.9987,275.315,267.6842,92.3942,2.1857e-05,1.68e-06,0.0,0 STARLINK-5506,1 55651U 23021Z   23272.00462773  .00000168  00000-0  21857-4 0  9997,2 55651  69.9987 275.3150 0003278 267.6842  92.3942 14.98328265 34778,6950.198,96.107,574.342,569.785,0.0
55651.0,STARLINK-5506,PAYLOAD,2023-09-29 09:43:28,14.98328568,0.000327,69.999,274.3053,267.8099,92.2686,2.2655e-05,1.77e-06,0.0,0 STARLINK-5506,1 55651U 23021Z   23272.40518787  .00000177  00000-0  22655-4 0  9995,2 55651  69.9990 274.3053 0003270 267.8099  92.2686 14.98328568 35132,6950.197,96.107,574.335,569.79,0.0
55651.0,STARLINK-5506,PAYLOAD,2023-09-30 03:20:56,14.98331337,0.0003335,69.9991,272.454,268.9277,91.15,2.6349e-05,2.21e-06,0.0,0 STARLINK-5506,1 55651U 23021Z   23273.13954555  .00000221  00000-0  26349-4 0  9997,2 55651  69.9991 272.4540 0003335 268.9277  91.1500 14.98331337 34944,6950.189,96.107,574.372,569.736,0.0
55651.0,STARLINK-5506,PAYLOAD,2023-09-30 04:57:04,14.98331256,0.0003331,69.9991,272.2857,268.7979,91.2799,2.5424e-05,2.1e-06,0.0,0 STARLINK-5506,1 55651U 23021Z   23273.20630555  .00000210  00000-0  25424-4 0  9997,2 55651  69.9991 272.2857 0003331 268.7979  91.2799 14.98331256 35252,6950.189,96.107,574.369,569.739,0.0
55651.0,STARLINK-5506,PAYLOAD,2023-10-01 09:47:29,14.98331407,0.0003261,69.9992,269.2548,270.8728,89.2058,8.1495e-06,4e-08,0.0,0 STARLINK-5506,1 55651U 23021Z   23274.40798518  .00000004  00000-0  81495-5 0  9996,2 55651  69.9992 269.2548 0003261 270.8728  89.2058 14.98331407 35134,6950.189,96.107,574.32,569.787,0.0
55651.0,STARLINK-5506,PAYLOAD,2023-10-02 09:49:30,14.98330967,0.000316,69.9995,266.7297,271.5726,88.5071,-2.3924e-06,-1.22e-06,0.0,0 STARLINK-5506,1 55651U 23021Z   23275.40938558 -.00000122  00000-0 -23924-5 0  9993,2 55651  69.9995 266.7297 0003160 271.5726  88.5071 14.98330967 35287,6950.19,96.107,574.251,569.859,0.0
55651.0,STARLINK-5506,PAYLOAD,2023-10-03 05:03:06,14.98344236,0.0003491,69.9988,264.7096,277.0751,83.001,0.0001613,1.833e-05,0.0,0 STARLINK-5506,1 55651U 23021Z   23276.21048729  .00001833  00000-0  16130-3 0  9992,2 55651  69.9988 264.7096 0003491 277.0751  83.0010 14.98344236 35401,6950.149,96.106,574.44,569.588,0.0
55651.0,STARLINK-5506,PAYLOAD,2023-10-03 09:51:29,14.98351707,0.0003245,69.9991,264.2055,269.3757,90.703,0.00020422,2.346e-05,0.0,0 STARLINK-5506,1 55651U 23021Z   23276.41075835  .00002346  00000-0  20422-3 0  9991,2 55651  69.9991 264.2055 0003245 269.3757  90.7030 14.98351707 35433,6950.126,96.106,574.246,569.735,0.0
55651.0,STARLINK-5506,PAYLOAD,2023-10-03 16:16:02,14.98359591,0.000305,70.0008,263.5315,269.6511,90.4298,-0.00033011,-4.033e-05,0.0,0 STARLINK-5506,1 55651U 23021Z   23276.67780383 -.00004033  00000-0 -33011-3 0  9995,2 55651  70.0008 263.5315 0003050 269.6511  90.4298 14.98359591 35477,6950.101,96.105,574.086,569.847,0.0
55651.0,STARLINK-5506,PAYLOAD,2023-10-04 08:17:24,14.98317856,0.0002771,70.0011,261.8519,255.3184,104.7668,-0.00012335,-1.564e-05,0.0,0 STARLINK-5506,1 55651U 23021Z   23277.34542791 -.00001564  00000-0 -12335-3 0  9991,2 55651  70.0011 261.8519 0002771 255.3184 104.7668 14.98317856 35574,6950.23,96.108,574.021,570.17,0.0
55651.0,STARLINK-5506,PAYLOAD,2023-10-04 16:18:05,14.98318735,0.0002504,70.0023,261.0091,268.4539,91.6333,-8.3988e-05,-1.095e-05,0.0,0 STARLINK-5506,1 55651U 23021Z   23277.67922968 -.00001095  00000-0 -83988-4 0  9997,2 55651  70.0023 261.0091 0002504 268.4539  91.6333 14.98318735 35926,6950.228,96.108,573.833,570.352,0.0
